<?xml version="1.0" encoding="UTF-8"?>
<ndm xmlns:xsi="http://www.w3.org/2001/XMLSchema-instance" xsi:noNamespaceSchemaLocation="https://sanaregistry.org/r/ndmxml_unqualified/ndmxml-2.0.0-master-2.0.xsd">
<omm id="CCSDS_OMM_VERS" version="2.0">
<header><CREATION_DATE/><ORIGINATOR/></header><body><segment><metadata><OBJECT_NAME>KUIPER-00008</OBJECT_NAME><OBJECT_ID>2025-088A</OBJECT_ID><CENTER_NAME>EARTH</CENTER_NAME><REF_FRAME>TEME</REF_FRAME><TIME_SYSTEM>UTC</TIME_SYSTEM><MEAN_ELEMENT_THEORY>SGP4</MEAN_ELEMENT_THEORY></metadata><data><meanElements><EPOCH>2025-07-29T14:00:01.999872</EPOCH><MEAN_MOTION>14.99055061</MEAN_MOTION><ECCENTRICITY>.0010869</ECCENTRICITY><INCLINATION>51.8907</INCLINATION><RA_OF_ASC_NODE>24.0597</RA_OF_ASC_NODE><ARG_OF_PERICENTER>65.3540</ARG_OF_PERICENTER><MEAN_ANOMALY>190.6316</MEAN_ANOMALY></meanElements><tleParameters><EPHEMERIS_TYPE>0</EPHEMERIS_TYPE><CLASSIFICATION_TYPE>U</CLASSIFICATION_TYPE><NORAD_CAT_ID>63724</NORAD_CAT_ID><ELEMENT_SET_NO>999</ELEMENT_SET_NO><REV_AT_EPOCH>1458</REV_AT_EPOCH><BSTAR>-.55791E-2</BSTAR><MEAN_MOTION_DOT>-.68136E-3</MEAN_MOTION_DOT><MEAN_MOTION_DDOT>0</MEAN_MOTION_DDOT></tleParameters></data></segment></body></omm>
<omm id="CCSDS_OMM_VERS" version="2.0">
<header><CREATION_DATE/><ORIGINATOR/></header><body><segment><metadata><OBJECT_NAME>KUIPER-00009</OBJECT_NAME><OBJECT_ID>2025-088B</OBJECT_ID><CENTER_NAME>EARTH</CENTER_NAME><REF_FRAME>TEME</REF_FRAME><TIME_SYSTEM>UTC</TIME_SYSTEM><MEAN_ELEMENT_THEORY>SGP4</MEAN_ELEMENT_THEORY></metadata><data><meanElements><EPOCH>2025-07-29T14:00:01.999872</EPOCH><MEAN_MOTION>15.14937987</MEAN_MOTION><ECCENTRICITY>.0011745</ECCENTRICITY><INCLINATION>51.8803</INCLINATION><RA_OF_ASC_NODE>17.8301</RA_OF_ASC_NODE><ARG_OF_PERICENTER>96.3824</ARG_OF_PERICENTER><MEAN_ANOMALY>8.4251</MEAN_ANOMALY></meanElements><tleParameters><EPHEMERIS_TYPE>0</EPHEMERIS_TYPE><CLASSIFICATION_TYPE>U</CLASSIFICATION_TYPE><NORAD_CAT_ID>63725</NORAD_CAT_ID><ELEMENT_SET_NO>999</ELEMENT_SET_NO><REV_AT_EPOCH>1467</REV_AT_EPOCH><BSTAR>-.36691E-1</BSTAR><MEAN_MOTION_DOT>-.644575E-2</MEAN_MOTION_DOT><MEAN_MOTION_DDOT>0</MEAN_MOTION_DDOT></tleParameters></data></segment></body></omm>
<omm id="CCSDS_OMM_VERS" version="2.0">
<header><CREATION_DATE/><ORIGINATOR/></header><body><segment><metadata><OBJECT_NAME>KUIPER-00010</OBJECT_NAME><OBJECT_ID>2025-088C</OBJECT_ID><CENTER_NAME>EARTH</CENTER_NAME><REF_FRAME>TEME</REF_FRAME><TIME_SYSTEM>UTC</TIME_SYSTEM><MEAN_ELEMENT_THEORY>SGP4</MEAN_ELEMENT_THEORY></metadata><data><meanElements><EPOCH>2025-07-29T11:35:25.816416</EPOCH><MEAN_MOTION>15.36077214</MEAN_MOTION><ECCENTRICITY>.0009699</ECCENTRICITY><INCLINATION>51.8648</INCLINATION><RA_OF_ASC_NODE>16.7014</RA_OF_ASC_NODE><ARG_OF_PERICENTER>84.1528</ARG_OF_PERICENTER><MEAN_ANOMALY>276.0564</MEAN_ANOMALY></meanElements><tleParameters><EPHEMERIS_TYPE>0</EPHEMERIS_TYPE><CLASSIFICATION_TYPE>U</CLASSIFICATION_TYPE><NORAD_CAT_ID>63726</NORAD_CAT_ID><ELEMENT_SET_NO>999</ELEMENT_SET_NO><REV_AT_EPOCH>1430</REV_AT_EPOCH><BSTAR>.4014E-3</BSTAR><MEAN_MOTION_DOT>.1398E-3</MEAN_MOTION_DOT><MEAN_MOTION_DDOT>0</MEAN_MOTION_DDOT></tleParameters></data></segment></body></omm>
<omm id="CCSDS_OMM_VERS" version="2.0">
<header><CREATION_DATE/><ORIGINATOR/></header><body><segment><metadata><OBJECT_NAME>KUIPER-00011</OBJECT_NAME><OBJECT_ID>2025-088D</OBJECT_ID><CENTER_NAME>EARTH</CENTER_NAME><REF_FRAME>TEME</REF_FRAME><TIME_SYSTEM>UTC</TIME_SYSTEM><MEAN_ELEMENT_THEORY>SGP4</MEAN_ELEMENT_THEORY></metadata><data><meanElements><EPOCH>2025-07-29T10:41:37.515840</EPOCH><MEAN_MOTION>15.35557937</MEAN_MOTION><ECCENTRICITY>.001123</ECCENTRICITY><INCLINATION>51.8594</INCLINATION><RA_OF_ASC_NODE>17.1360</RA_OF_ASC_NODE><ARG_OF_PERICENTER>91.6257</ARG_OF_PERICENTER><MEAN_ANOMALY>268.6015</MEAN_ANOMALY></meanElements><tleParameters><EPHEMERIS_TYPE>0</EPHEMERIS_TYPE><CLASSIFICATION_TYPE>U</CLASSIFICATION_TYPE><NORAD_CAT_ID>63727</NORAD_CAT_ID><ELEMENT_SET_NO>999</ELEMENT_SET_NO><REV_AT_EPOCH>1443</REV_AT_EPOCH><BSTAR>.39792E-3</BSTAR><MEAN_MOTION_DOT>.13628E-3</MEAN_MOTION_DOT><MEAN_MOTION_DDOT>0</MEAN_MOTION_DDOT></tleParameters></data></segment></body></omm>
<omm id="CCSDS_OMM_VERS" version="2.0">
<header><CREATION_DATE/><ORIGINATOR/></header><body><segment><metadata><OBJECT_NAME>KUIPER-00012</OBJECT_NAME><OBJECT_ID>2025-088E</OBJECT_ID><CENTER_NAME>EARTH</CENTER_NAME><REF_FRAME>TEME</REF_FRAME><TIME_SYSTEM>UTC</TIME_SYSTEM><MEAN_ELEMENT_THEORY>SGP4</MEAN_ELEMENT_THEORY></metadata><data><meanElements><EPOCH>2025-07-28T11:13:05.174400</EPOCH><MEAN_MOTION>15.35684173</MEAN_MOTION><ECCENTRICITY>.0011472</ECCENTRICITY><INCLINATION>51.8586</INCLINATION><RA_OF_ASC_NODE>21.8213</RA_OF_ASC_NODE><ARG_OF_PERICENTER>89.1404</ARG_OF_PERICENTER><MEAN_ANOMALY>271.0896</MEAN_ANOMALY></meanElements><tleParameters><EPHEMERIS_TYPE>0</EPHEMERIS_TYPE><CLASSIFICATION_TYPE>U</CLASSIFICATION_TYPE><NORAD_CAT_ID>63728</NORAD_CAT_ID><ELEMENT_SET_NO>999</ELEMENT_SET_NO><REV_AT_EPOCH>1423</REV_AT_EPOCH><BSTAR>.33813E-3</BSTAR><MEAN_MOTION_DOT>.11567E-3</MEAN_MOTION_DOT><MEAN_MOTION_DDOT>0</MEAN_MOTION_DDOT></tleParameters></data></segment></body></omm>
<omm id="CCSDS_OMM_VERS" version="2.0">
<header><CREATION_DATE/><ORIGINATOR/></header><body><segment><metadata><OBJECT_NAME>KUIPER-00013</OBJECT_NAME><OBJECT_ID>2025-088F</OBJECT_ID><CENTER_NAME>EARTH</CENTER_NAME><REF_FRAME>TEME</REF_FRAME><TIME_SYSTEM>UTC</TIME_SYSTEM><MEAN_ELEMENT_THEORY>SGP4</MEAN_ELEMENT_THEORY></metadata><data><meanElements><EPOCH>2025-07-29T14:00:01.999872</EPOCH><MEAN_MOTION>15.13955760</MEAN_MOTION><ECCENTRICITY>.0006557</ECCENTRICITY><INCLINATION>51.8900</INCLINATION><RA_OF_ASC_NODE>18.4649</RA_OF_ASC_NODE><ARG_OF_PERICENTER>50.1831</ARG_OF_PERICENTER><MEAN_ANOMALY>103.1868</MEAN_ANOMALY></meanElements><tleParameters><EPHEMERIS_TYPE>0</EPHEMERIS_TYPE><CLASSIFICATION_TYPE>U</CLASSIFICATION_TYPE><NORAD_CAT_ID>63729</NORAD_CAT_ID><ELEMENT_SET_NO>999</ELEMENT_SET_NO><REV_AT_EPOCH>1447</REV_AT_EPOCH><BSTAR>-.43964E-1</BSTAR><MEAN_MOTION_DOT>-.750299E-2</MEAN_MOTION_DOT><MEAN_MOTION_DDOT>0</MEAN_MOTION_DDOT></tleParameters></data></segment></body></omm>
<omm id="CCSDS_OMM_VERS" version="2.0">
<header><CREATION_DATE/><ORIGINATOR/></header><body><segment><metadata><OBJECT_NAME>KUIPER-00014</OBJECT_NAME><OBJECT_ID>2025-088G</OBJECT_ID><CENTER_NAME>EARTH</CENTER_NAME><REF_FRAME>TEME</REF_FRAME><TIME_SYSTEM>UTC</TIME_SYSTEM><MEAN_ELEMENT_THEORY>SGP4</MEAN_ELEMENT_THEORY></metadata><data><meanElements><EPOCH>2025-07-29T14:00:01.999872</EPOCH><MEAN_MOTION>15.12215759</MEAN_MOTION><ECCENTRICITY>.0010071</ECCENTRICITY><INCLINATION>51.8816</INCLINATION><RA_OF_ASC_NODE>19.4564</RA_OF_ASC_NODE><ARG_OF_PERICENTER>86.4809</ARG_OF_PERICENTER><MEAN_ANOMALY>346.2788</MEAN_ANOMALY></meanElements><tleParameters><EPHEMERIS_TYPE>0</EPHEMERIS_TYPE><CLASSIFICATION_TYPE>U</CLASSIFICATION_TYPE><NORAD_CAT_ID>63730</NORAD_CAT_ID><ELEMENT_SET_NO>999</ELEMENT_SET_NO><REV_AT_EPOCH>1427</REV_AT_EPOCH><BSTAR>-.97643E-3</BSTAR><MEAN_MOTION_DOT>-.17357E-3</MEAN_MOTION_DOT><MEAN_MOTION_DDOT>0</MEAN_MOTION_DDOT></tleParameters></data></segment></body></omm>
<omm id="CCSDS_OMM_VERS" version="2.0">
<header><CREATION_DATE/><ORIGINATOR/></header><body><segment><metadata><OBJECT_NAME>KUIPER-00015</OBJECT_NAME><OBJECT_ID>2025-088H</OBJECT_ID><CENTER_NAME>EARTH</CENTER_NAME><REF_FRAME>TEME</REF_FRAME><TIME_SYSTEM>UTC</TIME_SYSTEM><MEAN_ELEMENT_THEORY>SGP4</MEAN_ELEMENT_THEORY></metadata><data><meanElements><EPOCH>2025-07-29T12:00:00.999648</EPOCH><MEAN_MOTION>14.85907218</MEAN_MOTION><ECCENTRICITY>.0012</ECCENTRICITY><INCLINATION>51.8958</INCLINATION><RA_OF_ASC_NODE>28.5139</RA_OF_ASC_NODE><ARG_OF_PERICENTER>63.6595</ARG_OF_PERICENTER><MEAN_ANOMALY>243.1992</MEAN_ANOMALY></meanElements><tleParameters><EPHEMERIS_TYPE>0</EPHEMERIS_TYPE><CLASSIFICATION_TYPE>U</CLASSIFICATION_TYPE><NORAD_CAT_ID>63731</NORAD_CAT_ID><ELEMENT_SET_NO>999</ELEMENT_SET_NO><REV_AT_EPOCH>1459</REV_AT_EPOCH><BSTAR>-.52781E-2</BSTAR><MEAN_MOTION_DOT>-.4646E-3</MEAN_MOTION_DOT><MEAN_MOTION_DDOT>0</MEAN_MOTION_DDOT></tleParameters></data></segment></body></omm>

</ndm>
