KUIPER-00008            
1 63724U 25088A   25210.58335648 -.00068136  00000+0 -55791-2 0  9991
2 63724  51.8907  24.0597 0010869  65.3540 190.6316 14.99055061 14582
KUIPER-00009            
1 63725U 25088B   25210.58335648 -.00644575  00000+0 -36691-1 0  9996
2 63725  51.8803  17.8301 0011745  96.3824   8.4251 15.14937987 14672
KUIPER-00010            
1 63726U 25088C   25210.48293769  .00013980  00000+0  40140-3 0  9997
2 63726  51.8648  16.7014 0009699  84.1528 276.0564 15.36077214 14302
KUIPER-00011            
1 63727U 25088D   25210.44557310  .00013628  00000+0  39792-3 0  9999
2 63727  51.8594  17.1360 0011230  91.6257 268.6015 15.35557937 14434
KUIPER-00012            
1 63728U 25088E   25209.46742100  .00011567  00000+0  33813-3 0  9991
2 63728  51.8586  21.8213 0011472  89.1404 271.0896 15.35684173 14235
KUIPER-00013            
1 63729U 25088F   25210.58335648 -.00750299  00000+0 -43964-1 0  9992
2 63729  51.8900  18.4649 0006557  50.1831 103.1868 15.13955760 14470
KUIPER-00014            
1 63730U 25088G   25210.58335648 -.00017357  00000+0 -97643-3 0  9990
2 63730  51.8816  19.4564 0010071  86.4809 346.2788 15.12215759 14273
KUIPER-00015            
1 63731U 25088H   25210.50001157 -.00046460  00000+0 -52781-2 0  9998
2 63731  51.8958  28.5139 0012000  63.6595 243.1992 14.85907218 14597
